[{"OBJECT_NAME":"KUIPER-00214","OBJECT_ID":"2026-030Q","EPOCH":"2026-03-12T02:03:51.821280","MEAN_MOTION":15.36927862,"ECCENTRICITY":5.647e-5,"INCLINATION":51.8828,"RA_OF_ASC_NODE":207.3946,"ARG_OF_PERICENTER":7.8777,"MEAN_ANOMALY":352.2219,"EPHEMERIS_TYPE":0,"CLASSIFICATION_TYPE":"U","NORAD_CAT_ID":67778,"ELEMENT_SET_NO":999,"REV_AT_EPOCH":546,"BSTAR":0.0010763727,"MEAN_MOTION_DOT":0.00039291,"MEAN_MOTION_DDOT":0},{"OBJECT_NAME":"KUIPER-00215","OBJECT_ID":"2026-030R","EPOCH":"2026-03-11T17:39:47.569536","MEAN_MOTION":15.34588543,"ECCENTRICITY":0.00105203,"INCLINATION":51.8834,"RA_OF_ASC_NODE":209.5383,"ARG_OF_PERICENTER":66.2297,"MEAN_ANOMALY":293.9791,"EPHEMERIS_TYPE":0,"CLASSIFICATION_TYPE":"U","NORAD_CAT_ID":67779,"ELEMENT_SET_NO":999,"REV_AT_EPOCH":540,"BSTAR":0.0009528564,"MEAN_MOTION_DOT":0.00032228,"MEAN_MOTION_DDOT":0},{"OBJECT_NAME":"KUIPER-00218","OBJECT_ID":"2026-030S","EPOCH":"2026-03-11T18:55:29.309952","MEAN_MOTION":15.3531197,"ECCENTRICITY":0.00070045,"INCLINATION":51.8826,"RA_OF_ASC_NODE":209.1418,"ARG_OF_PERICENTER":56.5678,"MEAN_ANOMALY":303.5977,"EPHEMERIS_TYPE":0,"CLASSIFICATION_TYPE":"U","NORAD_CAT_ID":67780,"ELEMENT_SET_NO":999,"REV_AT_EPOCH":541,"BSTAR":0.00072909642,"MEAN_MOTION_DOT":0.00025103,"MEAN_MOTION_DDOT":0},{"OBJECT_NAME":"KUIPER-00220","OBJECT_ID":"2026-030T","EPOCH":"2026-03-11T17:33:01.799712","MEAN_MOTION":15.34893065,"ECCENTRICITY":0.00087191,"INCLINATION":51.8795,"RA_OF_ASC_NODE":209.4978,"ARG_OF_PERICENTER":62.0532,"MEAN_ANOMALY":298.1335,"EPHEMERIS_TYPE":0,"CLASSIFICATION_TYPE":"U","NORAD_CAT_ID":67781,"ELEMENT_SET_NO":999,"REV_AT_EPOCH":540,"BSTAR":0.00077111324,"MEAN_MOTION_DOT":0.00026229,"MEAN_MOTION_DDOT":0},{"OBJECT_NAME":"KUIPER-00222","OBJECT_ID":"2026-030U","EPOCH":"2026-03-12T02:09:04.850208","MEAN_MOTION":15.32237418,"ECCENTRICITY":0.00152427,"INCLINATION":51.8812,"RA_OF_ASC_NODE":208.1378,"ARG_OF_PERICENTER":73.2456,"MEAN_ANOMALY":287.02,"EPHEMERIS_TYPE":0,"CLASSIFICATION_TYPE":"U","NORAD_CAT_ID":67782,"ELEMENT_SET_NO":999,"REV_AT_EPOCH":545,"BSTAR":0.0013449359,"MEAN_MOTION_DOT":0.00042497,"MEAN_MOTION_DDOT":0},{"OBJECT_NAME":"KUIPER-00223","OBJECT_ID":"2026-030V","EPOCH":"2026-03-11T17:46:37.129728","MEAN_MOTION":15.34231702,"ECCENTRICITY":0.00127005,"INCLINATION":51.8831,"RA_OF_ASC_NODE":209.5676,"ARG_OF_PERICENTER":65.499,"MEAN_ANOMALY":294.7318,"EPHEMERIS_TYPE":0,"CLASSIFICATION_TYPE":"U","NORAD_CAT_ID":67783,"ELEMENT_SET_NO":999,"REV_AT_EPOCH":540,"BSTAR":0.0015542835,"MEAN_MOTION_DOT":0.00052394,"MEAN_MOTION_DDOT":0},{"OBJECT_NAME":"KUIPER-00225","OBJECT_ID":"2026-030W","EPOCH":"2026-03-11T20:11:55.712256","MEAN_MOTION":15.36053878,"ECCENTRICITY":0.0004739,"INCLINATION":51.8815,"RA_OF_ASC_NODE":208.7445,"ARG_OF_PERICENTER":43.3942,"MEAN_ANOMALY":316.7417,"EPHEMERIS_TYPE":0,"CLASSIFICATION_TYPE":"U","NORAD_CAT_ID":67784,"ELEMENT_SET_NO":999,"REV_AT_EPOCH":542,"BSTAR":0.0010238,"MEAN_MOTION_DOT":0.00036304,"MEAN_MOTION_DDOT":0},{"OBJECT_NAME":"KUIPER-00226","OBJECT_ID":"2026-030X","EPOCH":"2026-03-11T20:18:37.111104","MEAN_MOTION":15.30619381,"ECCENTRICITY":0.0020617,"INCLINATION":51.8816,"RA_OF_ASC_NODE":209.5014,"ARG_OF_PERICENTER":77.5393,"MEAN_ANOMALY":282.7896,"EPHEMERIS_TYPE":0,"CLASSIFICATION_TYPE":"U","NORAD_CAT_ID":67785,"ELEMENT_SET_NO":999,"REV_AT_EPOCH":541,"BSTAR":0.0013368,"MEAN_MOTION_DOT":0.00040249,"MEAN_MOTION_DDOT":0},{"OBJECT_NAME":"KUIPER-00259","OBJECT_ID":"2026-030Y","EPOCH":"2026-03-11T20:32:47.355360","MEAN_MOTION":15.35208805,"ECCENTRICITY":0.0008501,"INCLINATION":51.8817,"RA_OF_ASC_NODE":208.8397,"ARG_OF_PERICENTER":50.9174,"MEAN_ANOMALY":309.2566,"EPHEMERIS_TYPE":0,"CLASSIFICATION_TYPE":"U","NORAD_CAT_ID":67786,"ELEMENT_SET_NO":999,"REV_AT_EPOCH":542,"BSTAR":0.00097224,"MEAN_MOTION_DOT":0.0003354,"MEAN_MOTION_DDOT":0},{"OBJECT_NAME":"KUIPER-00260","OBJECT_ID":"2026-030Z","EPOCH":"2026-03-12T02:11:59.995104","MEAN_MOTION":15.36645771,"ECCENTRICITY":0.00016565,"INCLINATION":51.8781,"RA_OF_ASC_NODE":207.4187,"ARG_OF_PERICENTER":51.4532,"MEAN_ANOMALY":308.6603,"EPHEMERIS_TYPE":0,"CLASSIFICATION_TYPE":"U","NORAD_CAT_ID":67787,"ELEMENT_SET_NO":999,"REV_AT_EPOCH":537,"BSTAR":0.001111154,"MEAN_MOTION_DOT":0.00040208,"MEAN_MOTION_DDOT":0},{"OBJECT_NAME":"KUIPER-00262","OBJECT_ID":"2026-030AA","EPOCH":"2026-03-11T21:24:41.700384","MEAN_MOTION":15.36846545,"ECCENTRICITY":7.86e-5,"INCLINATION":51.882,"RA_OF_ASC_NODE":208.3397,"ARG_OF_PERICENTER":9.3493,"MEAN_ANOMALY":350.7508,"EPHEMERIS_TYPE":0,"CLASSIFICATION_TYPE":"U","NORAD_CAT_ID":67788,"ELEMENT_SET_NO":999,"REV_AT_EPOCH":543,"BSTAR":0.00089865,"MEAN_MOTION_DOT":0.00032623,"MEAN_MOTION_DDOT":0},{"OBJECT_NAME":"KUIPER-00266","OBJECT_ID":"2026-030AB","EPOCH":"2026-03-11T18:51:11.615904","MEAN_MOTION":15.30706366,"ECCENTRICITY":0.00232642,"INCLINATION":51.8812,"RA_OF_ASC_NODE":209.8413,"ARG_OF_PERICENTER":81.9114,"MEAN_ANOMALY":278.4508,"EPHEMERIS_TYPE":0,"CLASSIFICATION_TYPE":"U","NORAD_CAT_ID":67789,"ELEMENT_SET_NO":999,"REV_AT_EPOCH":540,"BSTAR":0.00077785293,"MEAN_MOTION_DOT":0.00023315,"MEAN_MOTION_DDOT":0},{"OBJECT_NAME":"KUIPER-00268","OBJECT_ID":"2026-030AC","EPOCH":"2026-03-12T02:22:24.700800","MEAN_MOTION":15.36175438,"ECCENTRICITY":0.00028874,"INCLINATION":51.8848,"RA_OF_ASC_NODE":207.48,"ARG_OF_PERICENTER":43.0955,"MEAN_ANOMALY":317.0257,"EPHEMERIS_TYPE":0,"CLASSIFICATION_TYPE":"U","NORAD_CAT_ID":67790,"ELEMENT_SET_NO":999,"REV_AT_EPOCH":546,"BSTAR":0.0016342085,"MEAN_MOTION_DOT":0.00058569,"MEAN_MOTION_DDOT":0},{"OBJECT_NAME":"KUIPER-00270","OBJECT_ID":"2026-030AD","EPOCH":"2026-03-11T19:09:25.262784","MEAN_MOTION":15.34759996,"ECCENTRICITY":0.0010354,"INCLINATION":51.8796,"RA_OF_ASC_NODE":209.1964,"ARG_OF_PERICENTER":60.3934,"MEAN_ANOMALY":299.8083,"EPHEMERIS_TYPE":0,"CLASSIFICATION_TYPE":"U","NORAD_CAT_ID":67791,"ELEMENT_SET_NO":999,"REV_AT_EPOCH":541,"BSTAR":0.0012592562,"MEAN_MOTION_DOT":0.0004301,"MEAN_MOTION_DDOT":0},{"OBJECT_NAME":"KUIPER-00274","OBJECT_ID":"2026-030AE","EPOCH":"2026-03-11T18:39:11.664576","MEAN_MOTION":15.29936645,"ECCENTRICITY":0.00180288,"INCLINATION":51.8832,"RA_OF_ASC_NODE":209.7955,"ARG_OF_PERICENTER":77.5662,"MEAN_ANOMALY":282.7338,"EPHEMERIS_TYPE":0,"CLASSIFICATION_TYPE":"U","NORAD_CAT_ID":67792,"ELEMENT_SET_NO":999,"REV_AT_EPOCH":540,"BSTAR":0.00045972709,"MEAN_MOTION_DOT":0.00013238,"MEAN_MOTION_DDOT":0},{"OBJECT_NAME":"KUIPER-00275","OBJECT_ID":"2026-030AF","EPOCH":"2026-03-11T19:05:09.833280","MEAN_MOTION":15.34855682,"ECCENTRICITY":0.00093749,"INCLINATION":51.8835,"RA_OF_ASC_NODE":209.1868,"ARG_OF_PERICENTER":59.913,"MEAN_ANOMALY":300.2785,"EPHEMERIS_TYPE":0,"CLASSIFICATION_TYPE":"U","NORAD_CAT_ID":67793,"ELEMENT_SET_NO":999,"REV_AT_EPOCH":541,"BSTAR":0.00073958282,"MEAN_MOTION_DOT":0.00025111,"MEAN_MOTION_DDOT":0}]
