KUIPER-00214            
1 67778U 26030Q   26071.08601645  .00039291  00000+0  10764-2 0  9995
2 67778  51.8828 207.3946 0000564   7.8777 352.2219 15.36927862  5469
KUIPER-00215            
1 67779U 26030R   26070.73596724  .00032228  00000+0  95286-3 0  9994
2 67779  51.8834 209.5383 0010520  66.2297 293.9791 15.34588543  5402
KUIPER-00218            
1 67780U 26030S   26070.78853368  .00025103  00000+0  72910-3 0  9994
2 67780  51.8826 209.1418 0007004  56.5678 303.5977 15.35311970  5412
KUIPER-00220            
1 67781U 26030T   26070.73127083  .00026229  00000+0  77111-3 0  9996
2 67781  51.8795 209.4978 0008719  62.0532 298.1335 15.34893065  5402
KUIPER-00222            
1 67782U 26030U   26071.08963947  .00042497  00000+0  13449-2 0  9991
2 67782  51.8812 208.1378 0015242  73.2456 287.0200 15.32237418  5456
KUIPER-00223            
1 67783U 26030V   26070.74070752  .00052394  00000+0  15543-2 0  9991
2 67783  51.8831 209.5676 0012700  65.4990 294.7318 15.34231702  5408
KUIPER-00225            
1 67784U 26030W   26070.84161704  .00036304  00000+0  10238-2 0  9990
2 67784  51.8815 208.7445 0004739  43.3942 316.7417 15.36053878  5426
KUIPER-00226            
1 67785U 26030X   26070.84626286  .00040249  00000+0  13368-2 0  9992
2 67785  51.8816 209.5014 0020617  77.5393 282.7896 15.30619381  5414
KUIPER-00259            
1 67786U 26030Y   26070.85610365  .00033540  00000+0  97224-3 0  9995
2 67786  51.8817 208.8397 0008501  50.9174 309.2566 15.35208805  5422
KUIPER-00260            
1 67787U 26030Z   26071.09166661  .00040208  00000+0  11112-2 0  9998
2 67787  51.8781 207.4187 0001656  51.4532 308.6603 15.36645771  5370
KUIPER-00262            
1 67788U 26030AA  26070.89214931  .00032623  00000+0  89865-3 0  9993
2 67788  51.8820 208.3397 0000786   9.3493 350.7508 15.36846545  5430
KUIPER-00266            
1 67789U 26030AB  26070.78555111  .00023315  00000+0  77785-3 0  9996
2 67789  51.8812 209.8413 0023264  81.9114 278.4508 15.30706366  5402
KUIPER-00268            
1 67790U 26030AC  26071.09889700  .00058569  00000+0  16342-2 0  9997
2 67790  51.8848 207.4800 0002887  43.0955 317.0257 15.36175438  5460
KUIPER-00270            
1 67791U 26030AD  26070.79820906  .00043010  00000+0  12593-2 0  9996
2 67791  51.8796 209.1964 0010354  60.3934 299.8083 15.34759996  5414
KUIPER-00274            
1 67792U 26030AE  26070.77721834  .00013238  00000+0  45973-3 0  9993
2 67792  51.8832 209.7955 0018028  77.5662 282.7338 15.29936645  5401
KUIPER-00275            
1 67793U 26030AF  26070.79525270  .00025111  00000+0  73958-3 0  9999
2 67793  51.8835 209.1868 0009374  59.9130 300.2785 15.34855682  5410
